[{"OBJECT_NAME":"ONEWEB-0211","OBJECT_ID":"2021-045A","EPOCH":"2025-10-08T02:25:36.184800","MEAN_MOTION":13.16086383,"ECCENTRICITY":0.00017795,"INCLINATION":87.8992,"RA_OF_ASC_NODE":309.4359,"ARG_OF_PERICENTER":104.7031,"MEAN_ANOMALY":255.4297,"EPHEMERIS_TYPE":0,"CLASSIFICATION_TYPE":"U","NORAD_CAT_ID":48767,"ELEMENT_SET_NO":999,"REV_AT_EPOCH":21128,"BSTAR":-0.00026858707,"MEAN_MOTION_DOT":-8.9e-7,"MEAN_MOTION_DDOT":0},{"OBJECT_NAME":"ONEWEB-0223","OBJECT_ID":"2021-045B","EPOCH":"2025-10-08T03:20:34.503936","MEAN_MOTION":13.1554793,"ECCENTRICITY":0.00017154,"INCLINATION":87.8981,"RA_OF_ASC_NODE":309.4846,"ARG_OF_PERICENTER":109.9718,"MEAN_ANOMALY":250.1597,"EPHEMERIS_TYPE":0,"CLASSIFICATION_TYPE":"U","NORAD_CAT_ID":48768,"ELEMENT_SET_NO":999,"REV_AT_EPOCH":21126,"BSTAR":0.00045971319,"MEAN_MOTION_DOT":1.86e-6,"MEAN_MOTION_DDOT":0},{"OBJECT_NAME":"ONEWEB-0230","OBJECT_ID":"2021-045C","EPOCH":"2025-10-08T02:39:29.403936","MEAN_MOTION":13.15546651,"ECCENTRICITY":0.00017358,"INCLINATION":87.8979,"RA_OF_ASC_NODE":309.5224,"ARG_OF_PERICENTER":90.7714,"MEAN_ANOMALY":269.3615,"EPHEMERIS_TYPE":0,"CLASSIFICATION_TYPE":"U","NORAD_CAT_ID":48769,"ELEMENT_SET_NO":999,"REV_AT_EPOCH":21152,"BSTAR":-0.00044538238,"MEAN_MOTION_DOT":-1.55e-6,"MEAN_MOTION_DDOT":0},{"OBJECT_NAME":"ONEWEB-0237","OBJECT_ID":"2021-045D","EPOCH":"2025-10-08T00:34:00.280704","MEAN_MOTION":13.1554343,"ECCENTRICITY":0.00016594,"INCLINATION":87.8986,"RA_OF_ASC_NODE":309.5372,"ARG_OF_PERICENTER":102.9068,"MEAN_ANOMALY":257.2248,"EPHEMERIS_TYPE":0,"CLASSIFICATION_TYPE":"U","NORAD_CAT_ID":48770,"ELEMENT_SET_NO":999,"REV_AT_EPOCH":21123,"BSTAR":0.0023714199,"MEAN_MOTION_DOT":9.06e-6,"MEAN_MOTION_DDOT":0},{"OBJECT_NAME":"ONEWEB-0235","OBJECT_ID":"2021-045E","EPOCH":"2025-10-08T01:47:01.427712","MEAN_MOTION":13.1554836,"ECCENTRICITY":0.0001611,"INCLINATION":87.8982,"RA_OF_ASC_NODE":309.4981,"ARG_OF_PERICENTER":107.5599,"MEAN_ANOMALY":252.5708,"EPHEMERIS_TYPE":0,"CLASSIFICATION_TYPE":"U","NORAD_CAT_ID":48771,"ELEMENT_SET_NO":999,"REV_AT_EPOCH":21123,"BSTAR":0.0007225832,"MEAN_MOTION_DOT":2.85e-6,"MEAN_MOTION_DDOT":0},{"OBJECT_NAME":"ONEWEB-0242","OBJECT_ID":"2021-045F","EPOCH":"2025-10-08T03:27:24.152256","MEAN_MOTION":13.15546556,"ECCENTRICITY":0.00016829,"INCLINATION":87.8991,"RA_OF_ASC_NODE":309.473,"ARG_OF_PERICENTER":96.6983,"MEAN_ANOMALY":263.4339,"EPHEMERIS_TYPE":0,"CLASSIFICATION_TYPE":"U","NORAD_CAT_ID":48772,"ELEMENT_SET_NO":999,"REV_AT_EPOCH":21128,"BSTAR":0.00058372948,"MEAN_MOTION_DOT":2.33e-6,"MEAN_MOTION_DDOT":0},{"OBJECT_NAME":"ONEWEB-0241","OBJECT_ID":"2021-045G","EPOCH":"2025-10-08T03:09:09.336384","MEAN_MOTION":13.15546962,"ECCENTRICITY":0.00019698,"INCLINATION":87.8975,"RA_OF_ASC_NODE":309.52,"ARG_OF_PERICENTER":108.2336,"MEAN_ANOMALY":251.9009,"EPHEMERIS_TYPE":0,"CLASSIFICATION_TYPE":"U","NORAD_CAT_ID":48773,"ELEMENT_SET_NO":999,"REV_AT_EPOCH":21119,"BSTAR":7.3781181e-5,"MEAN_MOTION_DOT":4.1e-7,"MEAN_MOTION_DDOT":0},{"OBJECT_NAME":"ONEWEB-0243","OBJECT_ID":"2021-045H","EPOCH":"2025-10-08T07:33:49.981248","MEAN_MOTION":13.15547373,"ECCENTRICITY":0.0001573,"INCLINATION":87.8992,"RA_OF_ASC_NODE":309.4881,"ARG_OF_PERICENTER":106.4709,"MEAN_ANOMALY":253.6594,"EPHEMERIS_TYPE":0,"CLASSIFICATION_TYPE":"U","NORAD_CAT_ID":48774,"ELEMENT_SET_NO":999,"REV_AT_EPOCH":21124,"BSTAR":0.00025855475,"MEAN_MOTION_DOT":1.1e-6,"MEAN_MOTION_DDOT":0},{"OBJECT_NAME":"ONEWEB-0222","OBJECT_ID":"2021-045J","EPOCH":"2025-10-08T03:30:50.686272","MEAN_MOTION":13.15548068,"ECCENTRICITY":0.00018127,"INCLINATION":87.8987,"RA_OF_ASC_NODE":309.4741,"ARG_OF_PERICENTER":99.7477,"MEAN_ANOMALY":260.3858,"EPHEMERIS_TYPE":0,"CLASSIFICATION_TYPE":"U","NORAD_CAT_ID":48775,"ELEMENT_SET_NO":999,"REV_AT_EPOCH":21126,"BSTAR":0.00038530241,"MEAN_MOTION_DOT":1.58e-6,"MEAN_MOTION_DDOT":0},{"OBJECT_NAME":"ONEWEB-0244","OBJECT_ID":"2021-045K","EPOCH":"2025-10-08T07:47:30.790752","MEAN_MOTION":13.15546885,"ECCENTRICITY":0.00017507,"INCLINATION":87.8997,"RA_OF_ASC_NODE":309.4224,"ARG_OF_PERICENTER":98.8505,"MEAN_ANOMALY":261.2824,"EPHEMERIS_TYPE":0,"CLASSIFICATION_TYPE":"U","NORAD_CAT_ID":48776,"ELEMENT_SET_NO":999,"REV_AT_EPOCH":21185,"BSTAR":-3.2797085e-5,"MEAN_MOTION_DOT":0,"MEAN_MOTION_DDOT":0},{"OBJECT_NAME":"ONEWEB-0247","OBJECT_ID":"2021-045L","EPOCH":"2025-10-08T07:42:57.662208","MEAN_MOTION":13.15547805,"ECCENTRICITY":0.00013443,"INCLINATION":87.8983,"RA_OF_ASC_NODE":309.4886,"ARG_OF_PERICENTER":127.0011,"MEAN_ANOMALY":233.1242,"EPHEMERIS_TYPE":0,"CLASSIFICATION_TYPE":"U","NORAD_CAT_ID":48777,"ELEMENT_SET_NO":999,"REV_AT_EPOCH":21129,"BSTAR":5.0723786e-5,"MEAN_MOTION_DOT":3.2e-7,"MEAN_MOTION_DDOT":0},{"OBJECT_NAME":"ONEWEB-0245","OBJECT_ID":"2021-045M","EPOCH":"2025-10-08T07:36:07.508448","MEAN_MOTION":13.15548322,"ECCENTRICITY":0.00020545,"INCLINATION":87.8991,"RA_OF_ASC_NODE":309.4537,"ARG_OF_PERICENTER":100.2312,"MEAN_ANOMALY":259.905,"EPHEMERIS_TYPE":0,"CLASSIFICATION_TYPE":"U","NORAD_CAT_ID":48778,"ELEMENT_SET_NO":999,"REV_AT_EPOCH":21126,"BSTAR":0.00027034683,"MEAN_MOTION_DOT":1.15e-6,"MEAN_MOTION_DDOT":0},{"OBJECT_NAME":"ONEWEB-0229","OBJECT_ID":"2021-045N","EPOCH":"2025-10-08T07:29:16.367136","MEAN_MOTION":13.1554834,"ECCENTRICITY":0.00017381,"INCLINATION":87.8985,"RA_OF_ASC_NODE":309.4541,"ARG_OF_PERICENTER":96.203,"MEAN_ANOMALY":263.9299,"EPHEMERIS_TYPE":0,"CLASSIFICATION_TYPE":"U","NORAD_CAT_ID":48779,"ELEMENT_SET_NO":999,"REV_AT_EPOCH":21129,"BSTAR":0.00049924283,"MEAN_MOTION_DOT":2.01e-6,"MEAN_MOTION_DDOT":0},{"OBJECT_NAME":"ONEWEB-0228","OBJECT_ID":"2021-045P","EPOCH":"2025-10-08T02:48:49.424544","MEAN_MOTION":13.15547353,"ECCENTRICITY":0.00017963,"INCLINATION":87.8988,"RA_OF_ASC_NODE":309.4703,"ARG_OF_PERICENTER":97.8483,"MEAN_ANOMALY":262.2851,"EPHEMERIS_TYPE":0,"CLASSIFICATION_TYPE":"U","NORAD_CAT_ID":48780,"ELEMENT_SET_NO":999,"REV_AT_EPOCH":21118,"BSTAR":-0.00019165651,"MEAN_MOTION_DOT":-5.9e-7,"MEAN_MOTION_DDOT":0},{"OBJECT_NAME":"ONEWEB-0232","OBJECT_ID":"2021-045Q","EPOCH":"2025-10-08T07:40:41.657376","MEAN_MOTION":13.1554815,"ECCENTRICITY":0.00018277,"INCLINATION":87.8989,"RA_OF_ASC_NODE":309.4213,"ARG_OF_PERICENTER":95.3999,"MEAN_ANOMALY":264.734,"EPHEMERIS_TYPE":0,"CLASSIFICATION_TYPE":"U","NORAD_CAT_ID":48781,"ELEMENT_SET_NO":999,"REV_AT_EPOCH":21153,"BSTAR":0.0001350255,"MEAN_MOTION_DOT":6.4e-7,"MEAN_MOTION_DDOT":0},{"OBJECT_NAME":"ONEWEB-0231","OBJECT_ID":"2021-045R","EPOCH":"2025-10-08T03:29:42.141696","MEAN_MOTION":13.15547601,"ECCENTRICITY":0.00016167,"INCLINATION":87.8978,"RA_OF_ASC_NODE":309.5065,"ARG_OF_PERICENTER":102.3124,"MEAN_ANOMALY":257.8187,"EPHEMERIS_TYPE":0,"CLASSIFICATION_TYPE":"U","NORAD_CAT_ID":48782,"ELEMENT_SET_NO":999,"REV_AT_EPOCH":21120,"BSTAR":0.00043212604,"MEAN_MOTION_DOT":1.76e-6,"MEAN_MOTION_DDOT":0}]
