ONEWEB-0211             
1 48767U 21045A   25281.10111325 -.00000089  00000+0 -26859-3 0  9997
2 48767  87.8992 309.4359 0001779 104.7031 255.4297 13.16086383211287
ONEWEB-0223             
1 48768U 21045B   25281.13928824  .00000186  00000+0  45971-3 0  9993
2 48768  87.8981 309.4846 0001715 109.9718 250.1597 13.15547930211268
ONEWEB-0230             
1 48769U 21045C   25281.11075699 -.00000155  00000+0 -44538-3 0  9991
2 48769  87.8979 309.5224 0001735  90.7714 269.3615 13.15546651211523
ONEWEB-0237             
1 48770U 21045D   25281.02361436  .00000906  00000+0  23714-2 0  9994
2 48770  87.8986 309.5372 0001659 102.9068 257.2248 13.15543430211238
ONEWEB-0235             
1 48771U 21045E   25281.07432208  .00000285  00000+0  72258-3 0  9994
2 48771  87.8982 309.4981 0001611 107.5599 252.5708 13.15548360211234
ONEWEB-0242             
1 48772U 21045F   25281.14402954  .00000233  00000+0  58373-3 0  9993
2 48772  87.8991 309.4730 0001682  96.6983 263.4339 13.15546556211281
ONEWEB-0241             
1 48773U 21045G   25281.13135806  .00000041  00000+0  73781-4 0  9990
2 48773  87.8975 309.5200 0001969 108.2336 251.9009 13.15546962211194
ONEWEB-0243             
1 48774U 21045H   25281.31516182  .00000110  00000+0  25855-3 0  9996
2 48774  87.8992 309.4881 0001573 106.4709 253.6594 13.15547373211244
ONEWEB-0222             
1 48775U 21045J   25281.14641998  .00000158  00000+0  38530-3 0  9998
2 48775  87.8987 309.4741 0001812  99.7477 260.3858 13.15548068211268
ONEWEB-0244             
1 48776U 21045K   25281.32466193  .00000000  00000+0 -32797-4 0  9998
2 48776  87.8997 309.4224 0001750  98.8505 261.2824 13.15546885211852
ONEWEB-0247             
1 48777U 21045L   25281.32150072  .00000032  00000+0  50724-4 0  9999
2 48777  87.8983 309.4886 0001344 127.0011 233.1242 13.15547805211291
ONEWEB-0245             
1 48778U 21045M   25281.31675357  .00000115  00000+0  27035-3 0  9997
2 48778  87.8991 309.4537 0002054 100.2312 259.9050 13.15548322211265
ONEWEB-0229             
1 48779U 21045N   25281.31199499  .00000201  00000+0  49924-3 0  9993
2 48779  87.8985 309.4541 0001738  96.2030 263.9299 13.15548340211296
ONEWEB-0228             
1 48780U 21045P   25281.11723871 -.00000059  00000+0 -19166-3 0  9998
2 48780  87.8988 309.4703 0001796  97.8483 262.2851 13.15547353211181
ONEWEB-0232             
1 48781U 21045Q   25281.31992659  .00000064  00000+0  13503-3 0  9996
2 48781  87.8989 309.4213 0001827  95.3999 264.7340 13.15548150211534
ONEWEB-0231             
1 48782U 21045R   25281.14562664  .00000176  00000+0  43213-3 0  9992
2 48782  87.8978 309.5065 0001616 102.3124 257.8187 13.15547601211200
